NORAD_CAT_ID,OBJECT_NAME,OBJECT_TYPE,EPOCH,MEAN_MOTION,ECCENTRICITY,INCLINATION,RA_OF_ASC_NODE,ARG_OF_PERICENTER,MEAN_ANOMALY,BSTAR,MEAN_MOTION_DOT,MEAN_MOTION_DDOT,TLE_LINE0,TLE_LINE1,TLE_LINE2,SEMIMAJOR_AXIS,PERIOD,APOGEE,PERIGEE,DECAYED
54007.0,STARLINK-5132,PAYLOAD,2023-09-23 07:34:39,15.08847069,0.0001309,53.216,286.724,95.3467,264.7675,0.00024919,3.681e-05,0.0,0 STARLINK-5132,1 54007U 22125AV  23266.31573236  .00003681  00000-0  24919-3 0  9993,2 54007  53.2160 286.7240 0001309  95.3467 264.7675 15.08847069 53846,6917.859,95.437,540.629,538.818,0.0
54007.0,STARLINK-5132,PAYLOAD,2023-09-23 18:42:21,15.08845328,0.0001249,53.2154,284.6413,94.3662,265.7473,0.00012395,1.686e-05,0.0,0 STARLINK-5132,1 54007U 22125AV  23266.77941097  .00001686  00000-0  12395-3 0  9995,2 54007  53.2154 284.6413 0001249  94.3662 265.7473 15.08845328 53963,6917.864,95.437,540.593,538.865,0.0
54007.0,STARLINK-5132,PAYLOAD,2023-09-24 07:25:26,15.08844144,0.000143,53.2165,282.2629,95.7545,264.361,2.6894e-05,1.4e-06,0.0,0 STARLINK-5132,1 54007U 22125AV  23267.30933184  .00000140  00000-0  26894-4 0  9997,2 54007  53.2165 282.2629 0001430  95.7545 264.3610 15.08844144 53991,6917.868,95.437,540.722,538.743,0.0
54007.0,STARLINK-5132,PAYLOAD,2023-09-25 00:54:40,15.0884169,0.0001548,53.2163,278.992,93.2163,266.9006,6.6375e-05,7.69e-06,0.0,0 STARLINK-5132,1 54007U 22125AV  23268.03797343  .00000769  00000-0  66375-4 0  9998,2 54007  53.2163 278.9920 0001548  93.2163 266.9006 15.08841690 54153,6917.875,95.437,540.811,538.669,0.0
54007.0,STARLINK-5132,PAYLOAD,2023-09-25 07:16:13,15.08846723,0.000161,53.2172,277.803,88.9641,271.1536,9.7647e-05,1.267e-05,0.0,0 STARLINK-5132,1 54007U 22125AV  23268.30292955  .00001267  00000-0  97647-4 0  9997,2 54007  53.2172 277.8030 0001610  88.9641 271.1536 15.08846723 54142,6917.86,95.437,540.839,538.611,0.0
54007.0,STARLINK-5132,PAYLOAD,2023-09-26 07:06:59,15.08849702,0.0001555,53.2156,273.3417,95.4512,264.6657,0.00020187,2.927e-05,0.0,0 STARLINK-5132,1 54007U 22125AV  23269.29652657  .00002927  00000-0  20187-3 0  9993,2 54007  53.2156 273.3417 0001555  95.4512 264.6657 15.08849702 54345,6917.851,95.437,540.791,538.64,0.0
54007.0,STARLINK-5132,PAYLOAD,2023-09-27 00:36:14,15.08836561,0.0001363,53.2148,270.0695,96.2563,263.8585,-4.0615e-05,-9.34e-06,0.0,0 STARLINK-5132,1 54007U 22125AV  23270.02517266 -.00000934  00000-0 -40615-4 0  9999,2 54007  53.2148 270.0695 0001363  96.2563 263.8585 15.08836561 54452,6917.891,95.438,540.699,538.813,0.0
54007.0,STARLINK-5132,PAYLOAD,2023-09-27 06:57:47,15.08836517,0.0001342,53.2152,268.8808,94.2148,265.8997,-3.6303e-05,-8.66e-06,0.0,0 STARLINK-5132,1 54007U 22125AV  23270.29013308 -.00000866  00000-0 -36303-4 0  9999,2 54007  53.2152 268.8808 0001342  94.2148 265.8997 15.08836517 54441,6917.891,95.438,540.684,538.828,0.0
54007.0,STARLINK-5132,PAYLOAD,2023-09-28 00:27:02,15.08828285,0.0001332,53.215,265.6099,98.5969,261.5175,-0.00010609,-1.975e-05,0.0,0 STARLINK-5132,1 54007U 22125AV  23271.01878002 -.00001975  00000-0 -10609-3 0  9992,2 54007  53.2150 265.6099 0001332  98.5969 261.5175 15.08828285 54605,6917.916,95.438,540.703,538.86,0.0
54007.0,STARLINK-5132,PAYLOAD,2023-09-28 05:13:12,15.08832797,0.0001318,53.2162,264.7178,86.5235,273.5908,-3.7562e-05,-8.86e-06,0.0,0 STARLINK-5132,1 54007U 22125AV  23271.21750322 -.00000886  00000-0 -37562-4 0  9996,2 54007  53.2162 264.7178 0001318  86.5235 273.5908 15.08832797 54580,6917.902,95.438,540.679,538.856,0.0
54007.0,STARLINK-5132,PAYLOAD,2023-09-29 00:17:49,15.08835749,0.0001223,53.2165,261.1494,92.0153,268.098,0.00013788,1.907e-05,0.0,0 STARLINK-5132,1 54007U 22125AV  23272.01238011  .00001907  00000-0  13788-3 0  9997,2 54007  53.2165 261.1494 0001223  92.0153 268.0980 15.08835749 54759,6917.893,95.438,540.604,538.912,0.0
54007.0,STARLINK-5132,PAYLOAD,2023-09-29 06:39:21,15.08843527,0.000123,53.2163,259.9597,92.1675,267.9458,0.0002013,2.918e-05,0.0,0 STARLINK-5132,1 54007U 22125AV  23272.27733496  .00002918  00000-0  20130-3 0  9994,2 54007  53.2163 259.9597 0001230  92.1675 267.9458 15.08843527 54799,6917.87,95.437,540.586,538.884,0.0
54007.0,STARLINK-5132,PAYLOAD,2023-09-30 03:19:22,15.08841133,0.0001322,53.217,256.092,92.8246,267.2898,0.00020656,3.001e-05,0.0,0 STARLINK-5132,1 54007U 22125AV  23273.13845692  .00003001  00000-0  20656-3 0  9999,2 54007  53.2170 256.0920 0001322  92.8246 267.2898 15.08841133 54925,6917.877,95.437,540.656,538.827,0.0
54007.0,STARLINK-5132,PAYLOAD,2023-09-30 04:54:45,15.08844634,0.0001322,53.2168,255.7973,88.2134,271.901,0.00019023,2.741e-05,0.0,0 STARLINK-5132,1 54007U 22125AV  23273.20469611  .00002741  00000-0  19023-3 0  9996,2 54007  53.2168 255.7973 0001322  88.2134 271.9010 15.08844634 54883,6917.866,95.437,540.646,538.817,0.0
54007.0,STARLINK-5132,PAYLOAD,2023-09-30 16:02:28,15.08833567,0.0001561,53.2168,253.7152,83.7683,276.3487,4.8092e-05,4.77e-06,0.0,0 STARLINK-5132,1 54007U 22125AV  23273.66838769  .00000477  00000-0  48092-4 0  9993,2 54007  53.2168 253.7152 0001561  83.7683 276.3487 15.08833567 55009,6917.9,95.438,540.845,538.685,0.0
54007.0,STARLINK-5132,PAYLOAD,2023-10-01 07:56:19,15.08840629,0.0001479,53.216,250.7387,84.7037,275.4124,-1.0269e-06,-3.04e-06,0.0,0 STARLINK-5132,1 54007U 22125AV  23274.33078033 -.00000304  00000-0 -10269-5 0  9995,2 54007  53.2160 250.7387 0001479  84.7037 275.4124 15.08840629 55106,6917.878,95.438,540.767,538.72,0.0
54007.0,STARLINK-5132,PAYLOAD,2023-10-02 15:44:02,15.0884598,0.0001505,53.2159,244.791,99.5071,260.6091,0.00013295,1.829e-05,0.0,0 STARLINK-5132,1 54007U 22125AV  23275.65557987  .00001829  00000-0  13295-3 0  9992,2 54007  53.2159 244.7910 0001505  99.5071 260.6091 15.08845980 55307,6917.862,95.437,540.768,538.686,0.0
54007.0,STARLINK-5132,PAYLOAD,2023-10-03 04:27:07,15.08847922,0.0001587,53.2166,242.4128,100.2382,259.8789,0.00020385,2.958e-05,0.0,0 STARLINK-5132,1 54007U 22125AV  23276.18550014  .00002958  00000-0  20385-3 0  9997,2 54007  53.2166 242.4128 0001587 100.2382 259.8789 15.08847922 55331,6917.856,95.437,540.819,538.623,0.0
54007.0,STARLINK-5132,PAYLOAD,2023-10-03 21:56:22,15.08840232,0.0001591,53.2156,239.1408,102.5538,257.5632,2.2962e-05,7.7e-07,0.0,0 STARLINK-5132,1 54007U 22125AV  23276.91414511  .00000077  00000-0  22962-4 0  9993,2 54007  53.2156 239.1408 0001591 102.5538 257.5632 15.08840232 55448,6917.88,95.438,540.845,538.644,0.0
54007.0,STARLINK-5132,PAYLOAD,2023-10-04 04:17:54,15.08842216,0.0001452,53.2156,237.955,91.7398,268.376,5.84e-05,6.42e-06,0.0,0 STARLINK-5132,1 54007U 22125AV  23277.17910547  .00000642  00000-0  58400-4 0  9996,2 54007  53.2156 237.9550 0001452  91.7398 268.3760 15.08842216 55537,6917.874,95.437,540.743,538.734,0.0
54007.0,STARLINK-5132,PAYLOAD,2023-10-04 21:47:09,15.08841391,0.0001298,53.2155,234.685,89.5894,270.5246,6.7925e-05,7.93e-06,0.0,0 STARLINK-5132,1 54007U 22125AV  23277.90774550  .00000793  00000-0  67925-4 0  9998,2 54007  53.2155 234.6850 0001298  89.5894 270.5246 15.08841391 55590,6917.876,95.437,540.639,538.843,0.0
54007.0,STARLINK-5132,PAYLOAD,2023-10-05 05:44:04,15.08857759,0.0001502,53.216,233.198,101.5428,258.5733,0.00041719,6.361e-05,0.0,0 STARLINK-5132,1 54007U 22125AV  23278.23893866  .00006361  00000-0  41719-3 0  9996,2 54007  53.2160 233.1980 0001502 101.5428 258.5733 15.08857759 55693,6917.826,95.436,540.73,538.652,0.0
54007.0,STARLINK-5132,PAYLOAD,2023-10-05 13:41:00,15.08850642,0.0001473,53.2167,231.7111,97.2898,262.8261,0.00027528,4.097e-05,0.0,0 STARLINK-5132,1 54007U 22125AV  23278.57014025  .00004097  00000-0  27528-3 0  9991,2 54007  53.2167 231.7111 0001473  97.2898 262.8261 15.08850642 55697,6917.848,95.437,540.732,538.694,0.0
54007.0,STARLINK-5132,PAYLOAD,2023-10-06 02:24:05,15.08843131,0.0001507,53.2182,229.3371,108.4299,251.6857,-3.9368e-05,-9.15e-06,0.0,0 STARLINK-5132,1 54007U 22125AV  23279.10006316 -.00000915  00000-0 -39368-4 0  9998,2 54007  53.2182 229.3371 0001507 108.4299 251.6857 15.08843131 55820,6917.871,95.437,540.778,538.693,0.0
54007.0,STARLINK-5132,PAYLOAD,2023-10-06 13:31:47,15.08841657,0.0001332,53.2172,227.2513,78.0272,282.087,5.3297e-05,5.6e-06,0.0,0 STARLINK-5132,1 54007U 22125AV  23279.56374410  .00000560  00000-0  53297-4 0  9992,2 54007  53.2172 227.2513 0001332  78.0272 282.0870 15.08841657 55849,6917.875,95.437,540.662,538.819,0.0
54007.0,STARLINK-5132,PAYLOAD,2023-10-07 00:39:30,15.08822422,0.0001345,53.217,225.1696,91.9951,268.1195,-0.00028915,-4.885e-05,0.0,0 STARLINK-5132,1 54007U 22125AV  23280.02743428 -.00004885  00000-0 -28915-3 0  9998,2 54007  53.2170 225.1696 0001345  91.9951 268.1195 15.08822422 55965,6917.934,95.439,540.73,538.869,0.0
54007.0,STARLINK-5132,PAYLOAD,2023-10-07 05:25:39,15.08833638,0.0001325,53.2168,224.2773,90.8419,269.2725,8.0359e-07,-2.75e-06,0.0,0 STARLINK-5132,1 54007U 22125AV  23280.22615235 -.00000275  00000-0  80359-6 0  9995,2 54007  53.2168 224.2773 0001325  90.8419 269.2725 15.08833638 55998,6917.9,95.438,540.681,538.848,0.0
54007.0,STARLINK-5132,PAYLOAD,2023-10-07 13:22:35,15.08835653,0.000114,53.2158,222.7894,98.0974,262.0148,9.389e-05,1.207e-05,0.0,0 STARLINK-5132,1 54007U 22125AV  23280.55735290  .00001207  00000-0  93890-4 0  9992,2 54007  53.2158 222.7894 0001140  98.0974 262.0148 15.08835653 55994,6917.894,95.438,540.547,538.97,0.0
54007.0,STARLINK-5132,PAYLOAD,2023-10-08 02:05:40,15.08858606,0.0001413,53.2158,220.4075,87.2209,272.8944,0.0010457,0.00016402,0.0,0 STARLINK-5132,1 54007U 22125AV  23281.08727148  .00016402  00000-0  10457-2 0  9993,2 54007  53.2158 220.4075 0001413  87.2209 272.8944 15.08858606 56126,6917.824,95.436,540.666,538.711,0.0
54007.0,STARLINK-5132,PAYLOAD,2023-10-08 13:13:22,15.08858366,0.000165,53.2163,218.3282,88.6682,271.45,0.00062681,9.707e-05,0.0,0 STARLINK-5132,1 54007U 22125AV  23281.55094918  .00009707  00000-0  62681-3 0  9994,2 54007  53.2163 218.3282 0001650  88.6682 271.4500 15.08858366 56149,6917.824,95.436,540.831,538.548,0.0
